{
"type": "FeatureCollection",
"name": "mahalle",
"crs": { "type": "name", "properties": { "name": "urn:ogc:def:crs:EPSG::3857" } },
"features": [
{ "type": "Feature", "properties": { "AD": "Merkez Mahallesi", "ILCE": "Batman", "IL": "Batman" }, "geometry": { "type": "Polygon", "coordinates": [ [ [ 4577435.197521249763668, 4561246.636858092620969 ], [ 4580329.504281875677407, 4561246.636858092620969 ], [ 4580329.504281875677407, 4564067.402665815316141 ], [ 4577435.197521249763668, 4564067.402665815316141 ], [ 4577435.197521249763668, 4561246.636858092620969 ] ] ] } },
{ "type": "Feature", "properties": { "AD": "Sanayi Mahallesi", "ILCE": "Batman", "IL": "Batman" }, "geometry": { "type": "Polygon", "coordinates": [ [ [ 4580774.782245049253106, 4562233.81776293925941 ], [ 4583223.811042500659823, 4562233.81776293925941 ], [ 4583223.811042500659823, 4564772.713834485039115 ], [ 4580774.782245049253106, 4564772.713834485039115 ], [ 4580774.782245049253106, 4562233.81776293925941 ] ] ] } },
{ "type": "Feature", "properties": { "AD": "Raman Mahallesi", "ILCE": "Batman", "IL": "Batman" }, "geometry": { "type": "Polygon", "coordinates": [ [ [ 4575320.127196178771555, 4562092.786176025867462 ], [ 4577546.517012043856084, 4562092.786176025867462 ], [ 4577546.517012043856084, 4564349.521384791471064 ], [ 4575320.127196178771555, 4564349.521384791471064 ], [ 4575320.127196178771555, 4562092.786176025867462 ] ] ] } },
{ "type": "Feature", "properties": { "AD": "Cumhuriyet Mahallesi", "ILCE": "Batman", "IL": "Batman" }, "geometry": { "type": "Polygon", "coordinates": [ [ [ 4578103.114466010592878, 4558708.602255688980222 ], [ 4580774.782245049253106, 4558708.602255688980222 ], [ 4580774.782245049253106, 4560964.602398808114231 ], [ 4578103.114466010592878, 4560964.602398808114231 ], [ 4578103.114466010592878, 4558708.602255688980222 ] ] ] } }
]
}
