{
"type": "FeatureCollection",
"name": "numarataj",
"crs": { "type": "name", "properties": { "name": "urn:ogc:def:crs:EPSG::3857" } },
"features": [
{ "type": "Feature", "properties": { "kapi_no": "1", "YOL_ADI": "Bülent Ecevit Bulvarı", "ID": 1 }, "geometry": { "type": "Point", "coordinates": [ 4574454.618155260570347, 4562903.461866857483983 ] } },
{ "type": "Feature", "properties": { "kapi_no": "3", "YOL_ADI": "Bülent Ecevit Bulvarı", "ID": 2 }, "geometry": { "type": "Point", "coordinates": [ 4575192.889018201269209, 4562970.738945277407765 ] } },
{ "type": "Feature", "properties": { "kapi_no": "5", "YOL_ADI": "Bülent Ecevit Bulvarı", "ID": 3 }, "geometry": { "type": "Point", "coordinates": [ 4575936.391897209919989, 4562962.135353296995163 ] } },
{ "type": "Feature", "properties": { "kapi_no": "7", "YOL_ADI": "Bülent Ecevit Bulvarı", "ID": 4 }, "geometry": { "type": "Point", "coordinates": [ 4576647.500804397277534, 4562923.207714715972543 ] } },
{ "type": "Feature", "properties": { "kapi_no": "9", "YOL_ADI": "Bülent Ecevit Bulvarı", "ID": 5 }, "geometry": { "type": "Point", "coordinates": [ 4577367.737909829244018, 4562930.259812333621085 ] } },
{ "type": "Feature", "properties": { "kapi_no": "11", "YOL_ADI": "Bülent Ecevit Bulvarı", "ID": 6 }, "geometry": { "type": "Point", "coordinates": [ 4578126.936837039887905, 4562910.090825881808996 ] } },
{ "type": "Feature", "properties": { "kapi_no": "13", "YOL_ADI": "Bülent Ecevit Bulvarı", "ID": 7 }, "geometry": { "type": "Point", "coordinates": [ 4578911.961886113509536, 4562971.303115492686629 ] } },
{ "type": "Feature", "properties": { "kapi_no": "15", "YOL_ADI": "Bülent Ecevit Bulvarı", "ID": 8 }, "geometry": { "type": "Point", "coordinates": [ 4578903.056326851248741, 4562921.656253882683814 ] } },
{ "type": "Feature", "properties": { "kapi_no": "17", "YOL_ADI": "Bülent Ecevit Bulvarı", "ID": 9 }, "geometry": { "type": "Point", "coordinates": [ 4579599.359741762280464, 4562932.798568647354841 ] } },
{ "type": "Feature", "properties": { "kapi_no": "19", "YOL_ADI": "Bülent Ecevit Bulvarı", "ID": 10 }, "geometry": { "type": "Point", "coordinates": [ 4580338.075882666744292, 4562926.592720974236727 ] } },
{ "type": "Feature", "properties": { "kapi_no": "21", "YOL_ADI": "Bülent Ecevit Bulvarı", "ID": 11 }, "geometry": { "type": "Point", "coordinates": [ 4581115.865164838731289, 4562923.489798528142273 ] } },
{ "type": "Feature", "properties": { "kapi_no": "23", "YOL_ADI": "Bülent Ecevit Bulvarı", "ID": 12 }, "geometry": { "type": "Point", "coordinates": [ 4581839.77581346873194, 4562924.336050013080239 ] } },
{ "type": "Feature", "properties": { "kapi_no": "25", "YOL_ADI": "Bülent Ecevit Bulvarı", "ID": 13 }, "geometry": { "type": "Point", "coordinates": [ 4582615.004747352562845, 4562899.653743374161422 ] } },
{ "type": "Feature", "properties": { "kapi_no": "27", "YOL_ADI": "Bülent Ecevit Bulvarı", "ID": 14 }, "geometry": { "type": "Point", "coordinates": [ 4583356.05859756283462, 4562948.313204051926732 ] } },
{ "type": "Feature", "properties": { "kapi_no": "29", "YOL_ADI": "Cumhuriyet Caddesi", "ID": 15 }, "geometry": { "type": "Point", "coordinates": [ 4579108.218148383311927, 4558724.956494475714862 ] } },
{ "type": "Feature", "properties": { "kapi_no": "31", "YOL_ADI": "Cumhuriyet Caddesi", "ID": 16 }, "geometry": { "type": "Point", "coordinates": [ 4579072.818550311028957, 4559397.335364626720548 ] } },
{ "type": "Feature", "properties": { "kapi_no": "33", "YOL_ADI": "Cumhuriyet Caddesi", "ID": 17 }, "geometry": { "type": "Point", "coordinates": [ 4579090.852307818830013, 4560016.035668466240168 ] } },
{ "type": "Feature", "properties": { "kapi_no": "35", "YOL_ADI": "Cumhuriyet Caddesi", "ID": 18 }, "geometry": { "type": "Point", "coordinates": [ 4579105.769119585864246, 4560716.559419169090688 ] } },
{ "type": "Feature", "properties": { "kapi_no": "37", "YOL_ADI": "Cumhuriyet Caddesi", "ID": 19 }, "geometry": { "type": "Point", "coordinates": [ 4579086.844806150533259, 4561342.671338734216988 ] } },
{ "type": "Feature", "properties": { "kapi_no": "39", "YOL_ADI": "Cumhuriyet Caddesi", "ID": 20 }, "geometry": { "type": "Point", "coordinates": [ 4579137.829132933169603, 4561974.462151656858623 ] } },
{ "type": "Feature", "properties": { "kapi_no": "41", "YOL_ADI": "Cumhuriyet Caddesi", "ID": 21 }, "geometry": { "type": "Point", "coordinates": [ 4579114.897317830473185, 4562628.434317041188478 ] } },
{ "type": "Feature", "properties": { "kapi_no": "43", "YOL_ADI": "Cumhuriyet Caddesi", "ID": 22 }, "geometry": { "type": "Point", "coordinates": [ 4579109.442662781104445, 4562651.423520503565669 ] } },
{ "type": "Feature", "properties": { "kapi_no": "45", "YOL_ADI": "Cumhuriyet Caddesi", "ID": 23 }, "geometry": { "type": "Point", "coordinates": [ 4579109.331343290396035, 4563322.222926637157798 ] } },
{ "type": "Feature", "properties": { "kapi_no": "47", "YOL_ADI": "Cumhuriyet Caddesi", "ID": 24 }, "geometry": { "type": "Point", "coordinates": [ 4579085.063694297336042, 4564101.256507431156933 ] } },
{ "type": "Feature", "properties": { "kapi_no": "49", "YOL_ADI": "Cumhuriyet Caddesi", "ID": 25 }, "geometry": { "type": "Point", "coordinates": [ 4579083.61654091719538, 4564755.78580535762012 ] } },
{ "type": "Feature", "properties": { "kapi_no": "51", "YOL_ADI": "Cumhuriyet Caddesi", "ID": 26 }, "geometry": { "type": "Point", "coordinates": [ 4579137.717813443392515, 4565457.33467298746109 ] } },
{ "type": "Feature", "properties": { "kapi_no": "53", "YOL_ADI": "Cumhuriyet Caddesi", "ID": 27 }, "geometry": { "type": "Point", "coordinates": [ 4579110.333218707703054, 4566177.554296621121466 ] } },
{ "type": "Feature", "properties": { "kapi_no": "55", "YOL_ADI": "Cumhuriyet Caddesi", "ID": 28 }, "geometry": { "type": "Point", "coordinates": [ 4579071.816674893721938, 4566901.069094996899366 ] } },
{ "type": "Feature", "properties": { "kapi_no": "57", "YOL_ADI": "Sanayi Caddesi", "ID": 29 }, "geometry": { "type": "Point", "coordinates": [ 4580552.365902444347739, 4561001.548477214761078 ] } },
{ "type": "Feature", "properties": { "kapi_no": "59", "YOL_ADI": "Sanayi Caddesi", "ID": 30 }, "geometry": { "type": "Point", "coordinates": [ 4580862.27936481218785, 4561093.068145618773997 ] } },
{ "type": "Feature", "properties": { "kapi_no": "61", "YOL_ADI": "Sanayi Caddesi", "ID": 31 }, "geometry": { "type": "Point", "coordinates": [ 4581114.640650440938771, 4561280.199468483217061 ] } },
{ "type": "Feature", "properties": { "kapi_no": "63", "YOL_ADI": "Sanayi Caddesi", "ID": 32 }, "geometry": { "type": "Point", "coordinates": [ 4581362.43783694691956, 4561493.423290395177901 ] } },
{ "type": "Feature", "properties": { "kapi_no": "65", "YOL_ADI": "Sanayi Caddesi", "ID": 33 }, "geometry": { "type": "Point", "coordinates": [ 4581638.064896151423454, 4561622.882745871320367 ] } },
{ "type": "Feature", "properties": { "kapi_no": "67", "YOL_ADI": "Sanayi Caddesi", "ID": 34 }, "geometry": { "type": "Point", "coordinates": [ 4581925.825779850594699, 4561793.382463954389095 ] } },
{ "type": "Feature", "properties": { "kapi_no": "69", "YOL_ADI": "Sanayi Caddesi", "ID": 35 }, "geometry": { "type": "Point", "coordinates": [ 4582202.454714472405612, 4561981.795663455501199 ] } },
{ "type": "Feature", "properties": { "kapi_no": "71", "YOL_ADI": "Sanayi Caddesi", "ID": 36 }, "geometry": { "type": "Point", "coordinates": [ 4582217.705484711565077, 4561926.512394406832755 ] } },
{ "type": "Feature", "properties": { "kapi_no": "73", "YOL_ADI": "Sanayi Caddesi", "ID": 37 }, "geometry": { "type": "Point", "coordinates": [ 4582427.542724856175482, 4562155.827058733440936 ] } },
{ "type": "Feature", "properties": { "kapi_no": "75", "YOL_ADI": "Sanayi Caddesi", "ID": 38 }, "geometry": { "type": "Point", "coordinates": [ 4582608.882175358943641, 4562400.519567814655602 ] } },
{ "type": "Feature", "properties": { "kapi_no": "77", "YOL_ADI": "Sanayi Caddesi", "ID": 39 }, "geometry": { "type": "Point", "coordinates": [ 4582801.353574940934777, 4562636.33244255464524 ] } },
{ "type": "Feature", "properties": { "kapi_no": "79", "YOL_ADI": "Sanayi Caddesi", "ID": 40 }, "geometry": { "type": "Point", "coordinates": [ 4582974.232744142413139, 4562906.564783319830894 ] } },
{ "type": "Feature", "properties": { "kapi_no": "81", "YOL_ADI": "Sanayi Caddesi", "ID": 41 }, "geometry": { "type": "Point", "coordinates": [ 4583149.894900613464415, 4563158.468275679275393 ] } },
{ "type": "Feature", "properties": { "kapi_no": "83", "YOL_ADI": "Sanayi Caddesi", "ID": 42 }, "geometry": { "type": "Point", "coordinates": [ 4583338.024840055033565, 4563339.712809400632977 ] } },
{ "type": "Feature", "properties": { "kapi_no": "85", "YOL_ADI": "Raman Yolu", "ID": 43 }, "geometry": { "type": "Point", "coordinates": [ 4574987.838516159914434, 4561967.551731815561652 ] } },
{ "type": "Feature", "properties": { "kapi_no": "87", "YOL_ADI": "Raman Yolu", "ID": 44 }, "geometry": { "type": "Point", "coordinates": [ 4575259.235434714704752, 4562071.349542445503175 ] } },
{ "type": "Feature", "properties": { "kapi_no": "89", "YOL_ADI": "Raman Yolu", "ID": 45 }, "geometry": { "type": "Point", "coordinates": [ 4575514.157068630680442, 4562165.699267404153943 ] } },
{ "type": "Feature", "properties": { "kapi_no": "91", "YOL_ADI": "Raman Yolu", "ID": 46 }, "geometry": { "type": "Point", "coordinates": [ 4575838.876023274846375, 4562290.371967130340636 ] } },
{ "type": "Feature", "properties": { "kapi_no": "93", "YOL_ADI": "Raman Yolu", "ID": 47 }, "geometry": { "type": "Point", "coordinates": [ 4576078.546886953525245, 4562446.638052242808044 ] } },
{ "type": "Feature", "properties": { "kapi_no": "95", "YOL_ADI": "Raman Yolu", "ID": 48 }, "geometry": { "type": "Point", "coordinates": [ 4576346.270262310281396, 4562500.372691447846591 ] } },
{ "type": "Feature", "properties": { "kapi_no": "97", "YOL_ADI": "Raman Yolu", "ID": 49 }, "geometry": { "type": "Point", "coordinates": [ 4576626.684059619903564, 4562630.690923716872931 ] } },
{ "type": "Feature", "properties": { "kapi_no": "99", "YOL_ADI": "Raman Yolu", "ID": 50 }, "geometry": { "type": "Point", "coordinates": [ 4576625.904823183082044, 4562639.435279221273959 ] } },
{ "type": "Feature", "properties": { "kapi_no": "101", "YOL_ADI": "Raman Yolu", "ID": 51 }, "geometry": { "type": "Point", "coordinates": [ 4576863.126658064313233, 4562880.754188224673271 ] } },
{ "type": "Feature", "properties": { "kapi_no": "103", "YOL_ADI": "Raman Yolu", "ID": 52 }, "geometry": { "type": "Point", "coordinates": [ 4577084.875083724036813, 4563039.567937676794827 ] } },
{ "type": "Feature", "properties": { "kapi_no": "105", "YOL_ADI": "Raman Yolu", "ID": 53 }, "geometry": { "type": "Point", "coordinates": [ 4577310.185733089223504, 4563240.133709120564163 ] } },
{ "type": "Feature", "properties": { "kapi_no": "107", "YOL_ADI": "Raman Yolu", "ID": 54 }, "geometry": { "type": "Point", "coordinates": [ 4577520.690890179947019, 4563395.990938472561538 ] } },
{ "type": "Feature", "properties": { "kapi_no": "109", "YOL_ADI": "Raman Yolu", "ID": 55 }, "geometry": { "type": "Point", "coordinates": [ 4577745.222303110174835, 4563580.765887410379946 ] } },
{ "type": "Feature", "properties": { "kapi_no": "111", "YOL_ADI": "Raman Yolu", "ID": 56 }, "geometry": { "type": "Point", "coordinates": [ 4577975.764968542382121, 4563781.201056676916778 ] } },
{ "type": "Feature", "properties": { "kapi_no": "113", "YOL_ADI": "Pazar Sokak", "ID": 57 }, "geometry": { "type": "Point", "coordinates": [ 4577798.766978181898594, 4561206.587498492561281 ] } },
{ "type": "Feature", "properties": { "kapi_no": "115", "YOL_ADI": "Pazar Sokak", "ID": 58 }, "geometry": { "type": "Point", "coordinates": [ 4577936.80314676463604, 4561255.803106470964849 ] } },
{ "type": "Feature", "properties": { "kapi_no": "117", "YOL_ADI": "Pazar Sokak", "ID": 59 }, "geometry": { "type": "Point", "coordinates": [ 4578162.559074093587697, 4561236.483484711498022 ] } },
{ "type": "Feature", "properties": { "kapi_no": "119", "YOL_ADI": "Pazar Sokak", "ID": 60 }, "geometry": { "type": "Point", "coordinates": [ 4578316.291290879249573, 4561231.265782807953656 ] } },
{ "type": "Feature", "properties": { "kapi_no": "121", "YOL_ADI": "Pazar Sokak", "ID": 61 }, "geometry": { "type": "Point", "coordinates": [ 4578502.974076939746737, 4561249.880298901349306 ] } },
{ "type": "Feature", "properties": { "kapi_no": "123", "YOL_ADI": "Pazar Sokak", "ID": 62 }, "geometry": { "type": "Point", "coordinates": [ 4578715.482984864152968, 4561206.164442701265216 ] } },
{ "type": "Feature", "properties": { "kapi_no": "125", "YOL_ADI": "Pazar Sokak", "ID": 63 }, "geometry": { "type": "Point", "coordinates": [ 4578860.75492034945637, 4561223.086687796749175 ] } },
{ "type": "Feature", "properties": { "kapi_no": "127", "YOL_ADI": "Pazar Sokak", "ID": 64 }, "geometry": { "type": "Point", "coordinates": [ 4578890.365904900245368, 4561268.635867786593735 ] } },
{ "type": "Feature", "properties": { "kapi_no": "129", "YOL_ADI": "Pazar Sokak", "ID": 65 }, "geometry": { "type": "Point", "coordinates": [ 4579039.200064091011882, 4561204.331201137043536 ] } },
{ "type": "Feature", "properties": { "kapi_no": "131", "YOL_ADI": "Pazar Sokak", "ID": 66 }, "geometry": { "type": "Point", "coordinates": [ 4579227.663962003774941, 4561241.278132016770542 ] } },
{ "type": "Feature", "properties": { "kapi_no": "133", "YOL_ADI": "Pazar Sokak", "ID": 67 }, "geometry": { "type": "Point", "coordinates": [ 4579451.750096970237792, 4561286.68637207057327 ] } },
{ "type": "Feature", "properties": { "kapi_no": "135", "YOL_ADI": "Pazar Sokak", "ID": 68 }, "geometry": { "type": "Point", "coordinates": [ 4579615.83502640016377, 4561240.149979510344565 ] } },
{ "type": "Feature", "properties": { "kapi_no": "137", "YOL_ADI": "Pazar Sokak", "ID": 69 }, "geometry": { "type": "Point", "coordinates": [ 4579835.134423263370991, 4561269.340965022332966 ] } },
{ "type": "Feature", "properties": { "kapi_no": "139", "YOL_ADI": "Pazar Sokak", "ID": 70 }, "geometry": { "type": "Point", "coordinates": [ 4580022.596445758827031, 4561226.612158994190395 ] } },
{ "type": "Feature", "properties": { "kapi_no": "141", "YOL_ADI": "Çarşı Sokak", "ID": 71 }, "geometry": { "type": "Point", "coordinates": [ 4578005.932550547644496, 4564093.49832564778626 ] } },
{ "type": "Feature", "properties": { "kapi_no": "143", "YOL_ADI": "Çarşı Sokak", "ID": 72 }, "geometry": { "type": "Point", "coordinates": [ 4578217.884861018508673, 4564045.679842241108418 ] } },
{ "type": "Feature", "properties": { "kapi_no": "145", "YOL_ADI": "Çarşı Sokak", "ID": 73 }, "geometry": { "type": "Point", "coordinates": [ 4578502.974076939746737, 4564043.705042350105941 ] } },
{ "type": "Feature", "properties": { "kapi_no": "147", "YOL_ADI": "Çarşı Sokak", "ID": 74 }, "geometry": { "type": "Point", "coordinates": [ 4578703.794438330456614, 4564033.689991544000804 ] } },
{ "type": "Feature", "properties": { "kapi_no": "149", "YOL_ADI": "Çarşı Sokak", "ID": 75 }, "geometry": { "type": "Point", "coordinates": [ 4578981.647887350991368, 4564077.699864295311272 ] } },
{ "type": "Feature", "properties": { "kapi_no": "151", "YOL_ADI": "Çarşı Sokak", "ID": 76 }, "geometry": { "type": "Point", "coordinates": [ 4579180.575817397795618, 4564062.465656468644738 ] } },
{ "type": "Feature", "properties": { "kapi_no": "153", "YOL_ADI": "Çarşı Sokak", "ID": 77 }, "geometry": { "type": "Point", "coordinates": [ 4579435.274812333285809, 4564026.496087772771716 ] } },
{ "type": "Feature", "properties": { "kapi_no": "155", "YOL_ADI": "Çarşı Sokak", "ID": 78 }, "geometry": { "type": "Point", "coordinates": [ 4579455.201001184992492, 4564031.715193934738636 ] } },
{ "type": "Feature", "properties": { "kapi_no": "157", "YOL_ADI": "Çarşı Sokak", "ID": 79 }, "geometry": { "type": "Point", "coordinates": [ 4579709.45471815764904, 4564087.573899824172258 ] } },
{ "type": "Feature", "properties": { "kapi_no": "159", "YOL_ADI": "Çarşı Sokak", "ID": 80 }, "geometry": { "type": "Point", "coordinates": [ 4579980.962956201285124, 4564089.830823549069464 ] } },
{ "type": "Feature", "properties": { "kapi_no": "161", "YOL_ADI": "Çarşı Sokak", "ID": 81 }, "geometry": { "type": "Point", "coordinates": [ 4580300.672533759847283, 4564084.611688179895282 ] } },
{ "type": "Feature", "properties": { "kapi_no": "163", "YOL_ADI": "Çarşı Sokak", "ID": 82 }, "geometry": { "type": "Point", "coordinates": [ 4580547.133886375464499, 4564103.795550001785159 ] } },
{ "type": "Feature", "properties": { "kapi_no": "165", "YOL_ADI": "Çarşı Sokak", "ID": 83 }, "geometry": { "type": "Point", "coordinates": [ 4580818.53080493118614, 4564109.437869045883417 ] } },
{ "type": "Feature", "properties": { "kapi_no": "167", "YOL_ADI": "Çarşı Sokak", "ID": 84 }, "geometry": { "type": "Point", "coordinates": [ 4581115.753845348954201, 4564070.364872552454472 ] } }
]
}
