{
"type": "FeatureCollection",
"name": "parcels",
"crs": { "type": "name", "properties": { "name": "urn:ogc:def:crs:EPSG::3857" } },
"features": [
{ "type": "Feature", "properties": { "ADA_NO": "1", "PARSEL_NO": "1", "ID": 1, "ALAN_M2": 8622.3, "NITELIK": "Konut", "MAHALLE": "Raman Mahallesi" }, "geometry": { "type": "Polygon", "coordinates": [ [ [ 4578412.02605296112597, 4561134.245208526030183 ], [ 4578537.817077558487654, 4561134.245208526030183 ], [ 4578537.817077558487654, 4561244.239532926119864 ], [ 4578412.02605296112597, 4561244.239532926119864 ], [ 4578412.02605296112597, 4561134.245208526030183 ] ] ] } },
{ "type": "Feature", "properties": { "ADA_NO": "1", "PARSEL_NO": "2", "ID": 2, "ALAN_M2": 16228.0, "NITELIK": "Ticari", "MAHALLE": "Merkez Mahallesi" }, "geometry": { "type": "Polygon", "coordinates": [ [ [ 4578620.527459217235446, 4561134.245208526030183 ], [ 4578801.866909720003605, 4561134.245208526030183 ], [ 4578801.866909720003605, 4561277.802135574631393 ], [ 4578620.527459217235446, 4561277.802135574631393 ], [ 4578620.527459217235446, 4561134.245208526030183 ] ] ] } },
{ "type": "Feature", "properties": { "ADA_NO": "1", "PARSEL_NO": "3", "ID": 3, "ALAN_M2": 17865.3, "NITELIK": "Arsa", "MAHALLE": "Sanayi Mahallesi" }, "geometry": { "type": "Polygon", "coordinates": [ [ [ 4578882.684860035777092, 4561134.245208526030183 ], [ 4579087.401403604075313, 4561134.245208526030183 ], [ 4579087.401403604075313, 4561274.276647006161511 ], [ 4578882.684860035777092, 4561274.276647006161511 ], [ 4578882.684860035777092, 4561134.245208526030183 ] ] ] } },
{ "type": "Feature", "properties": { "ADA_NO": "1", "PARSEL_NO": "4", "ID": 4, "ALAN_M2": 19419.3, "NITELIK": "Arsa", "MAHALLE": "Sanayi Mahallesi" }, "geometry": { "type": "Polygon", "coordinates": [ [ [ 4579062.131879194639623, 4561134.245208526030183 ], [ 4579250.484457616694272, 4561134.245208526030183 ], [ 4579250.484457616694272, 4561299.660191393457353 ], [ 4579062.131879194639623, 4561299.660191393457353 ], [ 4579062.131879194639623, 4561134.245208526030183 ] ] ] } },
{ "type": "Feature", "properties": { "ADA_NO": "2", "PARSEL_NO": "1", "ID": 5, "ALAN_M2": 15365.4, "NITELIK": "Ticari", "MAHALLE": "Merkez Mahallesi" }, "geometry": { "type": "Polygon", "coordinates": [ [ [ 4577179.162692425772548, 4563472.157313074916601 ], [ 4577317.087541518732905, 4563472.157313074916601 ], [ 4577317.087541518732905, 4563651.150492096319795 ], [ 4577179.162692425772548, 4563651.150492096319795 ], [ 4577179.162692425772548, 4563472.157313074916601 ] ] ] } },
{ "type": "Feature", "properties": { "ADA_NO": "2", "PARSEL_NO": "2", "ID": 6, "ALAN_M2": 12608.1, "NITELIK": "Bahçe", "MAHALLE": "Merkez Mahallesi" }, "geometry": { "type": "Polygon", "coordinates": [ [ [ 4577354.490890425629914, 4563472.157313074916601 ], [ 4577506.887273320928216, 4563472.157313074916601 ], [ 4577506.887273320928216, 4563605.026659202761948 ], [ 4577354.490890425629914, 4563605.026659202761948 ], [ 4577354.490890425629914, 4563472.157313074916601 ] ] ] } },
{ "type": "Feature", "properties": { "ADA_NO": "2", "PARSEL_NO": "3", "ID": 7, "ALAN_M2": 11892.7, "NITELIK": "Ticari", "MAHALLE": "Merkez Mahallesi" }, "geometry": { "type": "Polygon", "coordinates": [ [ [ 4577518.464500363916159, 4563472.157313074916601 ], [ 4577665.962825665250421, 4563472.157313074916601 ], [ 4577665.962825665250421, 4563601.641431828960776 ], [ 4577518.464500363916159, 4563601.641431828960776 ], [ 4577518.464500363916159, 4563472.157313074916601 ] ] ] } },
{ "type": "Feature", "properties": { "ADA_NO": "2", "PARSEL_NO": "4", "ID": 8, "ALAN_M2": 16521.8, "NITELIK": "Ticari", "MAHALLE": "Cumhuriyet Mahallesi" }, "geometry": { "type": "Polygon", "coordinates": [ [ [ 4577702.252979664131999, 4563472.157313074916601 ], [ 4577853.870126124471426, 4563472.157313074916601 ], [ 4577853.870126124471426, 4563647.201042729429901 ], [ 4577702.252979664131999, 4563647.201042729429901 ], [ 4577702.252979664131999, 4563472.157313074916601 ] ] ] } },
{ "type": "Feature", "properties": { "ADA_NO": "2", "PARSEL_NO": "5", "ID": 9, "ALAN_M2": 16786.8, "NITELIK": "Tarla", "MAHALLE": "Sanayi Mahallesi" }, "geometry": { "type": "Polygon", "coordinates": [ [ [ 4578140.183856444433331, 4563472.157313074916601 ], [ 4578349.130540664307773, 4563472.157313074916601 ], [ 4578349.130540664307773, 4563601.218278485350311 ], [ 4578140.183856444433331, 4563601.218278485350311 ], [ 4578140.183856444433331, 4563472.157313074916601 ] ] ] } },
{ "type": "Feature", "properties": { "ADA_NO": "2", "PARSEL_NO": "6", "ID": 10, "ALAN_M2": 15550.6, "NITELIK": "Tarla", "MAHALLE": "Sanayi Mahallesi" }, "geometry": { "type": "Polygon", "coordinates": [ [ [ 4578233.692228711210191, 4563472.157313074916601 ], [ 4578417.146749538369477, 4563472.157313074916601 ], [ 4578417.146749538369477, 4563608.270836469717324 ], [ 4578233.692228711210191, 4563608.270836469717324 ], [ 4578233.692228711210191, 4563472.157313074916601 ] ] ] } },
{ "type": "Feature", "properties": { "ADA_NO": "2", "PARSEL_NO": "7", "ID": 11, "ALAN_M2": 6543.9, "NITELIK": "Arsa", "MAHALLE": "Cumhuriyet Mahallesi" }, "geometry": { "type": "Polygon", "coordinates": [ [ [ 4577898.954519894905388, 4563472.157313074916601 ], [ 4578003.260882768779993, 4563472.157313074916601 ], [ 4578003.260882768779993, 4563572.867043709382415 ], [ 4577898.954519894905388, 4563572.867043709382415 ], [ 4577898.954519894905388, 4563472.157313074916601 ] ] ] } },
{ "type": "Feature", "properties": { "ADA_NO": "3", "PARSEL_NO": "1", "ID": 12, "ALAN_M2": 10919.1, "NITELIK": "Arsa", "MAHALLE": "Raman Mahallesi" }, "geometry": { "type": "Polygon", "coordinates": [ [ [ 4576830.844005733728409, 4562278.243109374307096 ], [ 4576946.950234631076455, 4562278.243109374307096 ], [ 4576946.950234631076455, 4562429.290708389133215 ], [ 4576830.844005733728409, 4562429.290708389133215 ], [ 4576830.844005733728409, 4562278.243109374307096 ] ] ] } },
{ "type": "Feature", "properties": { "ADA_NO": "3", "PARSEL_NO": "2", "ID": 13, "ALAN_M2": 9555.8, "NITELIK": "Konut", "MAHALLE": "Sanayi Mahallesi" }, "geometry": { "type": "Polygon", "coordinates": [ [ [ 4576963.425519268028438, 4562278.243109374307096 ], [ 4577078.752511730417609, 4562278.243109374307096 ], [ 4577078.752511730417609, 4562411.238218715414405 ], [ 4576963.425519268028438, 4562411.238218715414405 ], [ 4576963.425519268028438, 4562278.243109374307096 ] ] ] } },
{ "type": "Feature", "properties": { "ADA_NO": "3", "PARSEL_NO": "3", "ID": 14, "ALAN_M2": 13493.9, "NITELIK": "Tarla", "MAHALLE": "Raman Mahallesi" }, "geometry": { "type": "Polygon", "coordinates": [ [ [ 4577174.70991279464215, 4562278.243109374307096 ], [ 4577324.211988929659128, 4562278.243109374307096 ], [ 4577324.211988929659128, 4562423.085161523893476 ], [ 4577174.70991279464215, 4562423.085161523893476 ], [ 4577174.70991279464215, 4562278.243109374307096 ] ] ] } },
{ "type": "Feature", "properties": { "ADA_NO": "4", "PARSEL_NO": "1", "ID": 15, "ALAN_M2": 12285.2, "NITELIK": "Ticari", "MAHALLE": "Sanayi Mahallesi" }, "geometry": { "type": "Polygon", "coordinates": [ [ [ 4581044.175412768498063, 4562535.77282873634249 ], [ 4581158.834488285705447, 4562535.77282873634249 ], [ 4581158.834488285705447, 4562707.697920370846987 ], [ 4581044.175412768498063, 4562707.697920370846987 ], [ 4581044.175412768498063, 4562535.77282873634249 ] ] ] } },
{ "type": "Feature", "properties": { "ADA_NO": "4", "PARSEL_NO": "2", "ID": 16, "ALAN_M2": 13938.4, "NITELIK": "Konut", "MAHALLE": "Merkez Mahallesi" }, "geometry": { "type": "Polygon", "coordinates": [ [ [ 4581237.203409804031253, 4562535.77282873634249 ], [ 4581405.073201919905841, 4562535.77282873634249 ], [ 4581405.073201919905841, 4562669.053312229923904 ], [ 4581237.203409804031253, 4562669.053312229923904 ], [ 4581237.203409804031253, 4562535.77282873634249 ] ] ] } },
{ "type": "Feature", "properties": { "ADA_NO": "4", "PARSEL_NO": "3", "ID": 17, "ALAN_M2": 8212.1, "NITELIK": "Tarla", "MAHALLE": "Cumhuriyet Mahallesi" }, "geometry": { "type": "Polygon", "coordinates": [ [ [ 4581311.342190672643483, 4562535.77282873634249 ], [ 4581427.55973906069994, 4562535.77282873634249 ], [ 4581427.55973906069994, 4562649.307947506196797 ], [ 4581311.342190672643483, 4562649.307947506196797 ], [ 4581311.342190672643483, 4562535.77282873634249 ] ] ] } },
{ "type": "Feature", "properties": { "ADA_NO": "5", "PARSEL_NO": "1", "ID": 18, "ALAN_M2": 11917.8, "NITELIK": "Tarla", "MAHALLE": "Raman Mahallesi" }, "geometry": { "type": "Polygon", "coordinates": [ [ [ 4577146.100803660228848, 4561172.320035193115473 ], [ 4577281.799262937158346, 4561172.320035193115473 ], [ 4577281.799262937158346, 4561313.198107091709971 ], [ 4577146.100803660228848, 4561313.198107091709971 ], [ 4577146.100803660228848, 4561172.320035193115473 ] ] ] } },
{ "type": "Feature", "properties": { "ADA_NO": "5", "PARSEL_NO": "2", "ID": 19, "ALAN_M2": 11873.6, "NITELIK": "Tarla", "MAHALLE": "Merkez Mahallesi" }, "geometry": { "type": "Polygon", "coordinates": [ [ [ 4577276.233288398012519, 4561172.320035193115473 ], [ 4577389.556530025787652, 4561172.320035193115473 ], [ 4577389.556530025787652, 4561340.5560322413221 ], [ 4577276.233288398012519, 4561340.5560322413221 ], [ 4577276.233288398012519, 4561172.320035193115473 ] ] ] } },
{ "type": "Feature", "properties": { "ADA_NO": "5", "PARSEL_NO": "3", "ID": 20, "ALAN_M2": 9685.4, "NITELIK": "Konut", "MAHALLE": "Raman Mahallesi" }, "geometry": { "type": "Polygon", "coordinates": [ [ [ 4577504.772202996537089, 4561172.320035193115473 ], [ 4577660.842129088938236, 4561172.320035193115473 ], [ 4577660.842129088938236, 4561272.020334951579571 ], [ 4577504.772202996537089, 4561272.020334951579571 ], [ 4577504.772202996537089, 4561172.320035193115473 ] ] ] } },
{ "type": "Feature", "properties": { "ADA_NO": "5", "PARSEL_NO": "4", "ID": 21, "ALAN_M2": 10257.7, "NITELIK": "Arsa", "MAHALLE": "Cumhuriyet Mahallesi" }, "geometry": { "type": "Polygon", "coordinates": [ [ [ 4577574.792162705212831, 4561172.320035193115473 ], [ 4577699.02471443079412, 4561172.320035193115473 ], [ 4577699.02471443079412, 4561304.736907714046538 ], [ 4577574.792162705212831, 4561304.736907714046538 ], [ 4577574.792162705212831, 4561172.320035193115473 ] ] ] } },
{ "type": "Feature", "properties": { "ADA_NO": "5", "PARSEL_NO": "5", "ID": 22, "ALAN_M2": 11857.8, "NITELIK": "Konut", "MAHALLE": "Sanayi Mahallesi" }, "geometry": { "type": "Polygon", "coordinates": [ [ [ 4577818.915806015022099, 4561172.320035193115473 ], [ 4577965.18961691763252, 4561172.320035193115473 ], [ 4577965.18961691763252, 4561302.339569142088294 ], [ 4577818.915806015022099, 4561302.339569142088294 ], [ 4577818.915806015022099, 4561172.320035193115473 ] ] ] } },
{ "type": "Feature", "properties": { "ADA_NO": "5", "PARSEL_NO": "6", "ID": 23, "ALAN_M2": 21823.8, "NITELIK": "Arsa", "MAHALLE": "Cumhuriyet Mahallesi" }, "geometry": { "type": "Polygon", "coordinates": [ [ [ 4578285.121833456680179, 4561172.320035193115473 ], [ 4578483.270527069456875, 4561172.320035193115473 ], [ 4578483.270527069456875, 4561349.158281325362623 ], [ 4578285.121833456680179, 4561349.158281325362623 ], [ 4578285.121833456680179, 4561172.320035193115473 ] ] ] } },
{ "type": "Feature", "properties": { "ADA_NO": "5", "PARSEL_NO": "7", "ID": 24, "ALAN_M2": 13399.7, "NITELIK": "Tarla", "MAHALLE": "Raman Mahallesi" }, "geometry": { "type": "Polygon", "coordinates": [ [ [ 4578014.170192865654826, 4561172.320035193115473 ], [ 4578139.96121746301651, 4561172.320035193115473 ], [ 4578139.96121746301651, 4561343.235420537181199 ], [ 4578014.170192865654826, 4561343.235420537181199 ], [ 4578014.170192865654826, 4561172.320035193115473 ] ] ] } },
{ "type": "Feature", "properties": { "ADA_NO": "6", "PARSEL_NO": "1", "ID": 25, "ALAN_M2": 12971.3, "NITELIK": "Tarla", "MAHALLE": "Cumhuriyet Mahallesi" }, "geometry": { "type": "Polygon", "coordinates": [ [ [ 4576951.291694772429764, 4563610.950809760019183 ], [ 4577075.858204970136285, 4563610.950809760019183 ], [ 4577075.858204970136285, 4563778.097878905013204 ], [ 4576951.291694772429764, 4563778.097878905013204 ], [ 4576951.291694772429764, 4563610.950809760019183 ] ] ] } },
{ "type": "Feature", "properties": { "ADA_NO": "6", "PARSEL_NO": "2", "ID": 26, "ALAN_M2": 13467.5, "NITELIK": "Konut", "MAHALLE": "Cumhuriyet Mahallesi" }, "geometry": { "type": "Polygon", "coordinates": [ [ [ 4577104.467314104549587, 4563610.950809760019183 ], [ 4577237.60542509239167, 4563610.950809760019183 ], [ 4577237.60542509239167, 4563773.302060531452298 ], [ 4577104.467314104549587, 4563773.302060531452298 ], [ 4577104.467314104549587, 4563610.950809760019183 ] ] ] } },
{ "type": "Feature", "properties": { "ADA_NO": "6", "PARSEL_NO": "3", "ID": 27, "ALAN_M2": 16082.3, "NITELIK": "Konut", "MAHALLE": "Raman Mahallesi" }, "geometry": { "type": "Polygon", "coordinates": [ [ [ 4577289.480307801626623, 4563610.950809760019183 ], [ 4577436.644674630835652, 4563610.950809760019183 ], [ 4577436.644674630835652, 4563786.420039568096399 ], [ 4577289.480307801626623, 4563786.420039568096399 ], [ 4577289.480307801626623, 4563610.950809760019183 ] ] ] } },
{ "type": "Feature", "properties": { "ADA_NO": "6", "PARSEL_NO": "4", "ID": 28, "ALAN_M2": 21649.0, "NITELIK": "Arsa", "MAHALLE": "Sanayi Mahallesi" }, "geometry": { "type": "Polygon", "coordinates": [ [ [ 4577645.36871986836195, 4563610.950809760019183 ], [ 4577846.523039731197059, 4563610.950809760019183 ], [ 4577846.523039731197059, 4563783.598967408761382 ], [ 4577645.36871986836195, 4563783.598967408761382 ], [ 4577645.36871986836195, 4563610.950809760019183 ] ] ] } },
{ "type": "Feature", "properties": { "ADA_NO": "6", "PARSEL_NO": "5", "ID": 29, "ALAN_M2": 15286.3, "NITELIK": "Bahçe", "MAHALLE": "Cumhuriyet Mahallesi" }, "geometry": { "type": "Polygon", "coordinates": [ [ [ 4577888.267848778516054, 4563610.950809760019183 ], [ 4578091.982516930438578, 4563610.950809760019183 ], [ 4578091.982516930438578, 4563731.409270687028766 ], [ 4577888.267848778516054, 4563731.409270687028766 ], [ 4577888.267848778516054, 4563610.950809760019183 ] ] ] } },
{ "type": "Feature", "properties": { "ADA_NO": "7", "PARSEL_NO": "1", "ID": 30, "ALAN_M2": 12800.6, "NITELIK": "Ticari", "MAHALLE": "Cumhuriyet Mahallesi" }, "geometry": { "type": "Polygon", "coordinates": [ [ [ 4581175.198453431949019, 4564313.974004191346467 ], [ 4581306.778091549873352, 4564313.974004191346467 ], [ 4581306.778091549873352, 4564469.988412858918309 ], [ 4581175.198453431949019, 4564469.988412858918309 ], [ 4581175.198453431949019, 4564313.974004191346467 ] ] ] } },
{ "type": "Feature", "properties": { "ADA_NO": "7", "PARSEL_NO": "2", "ID": 31, "ALAN_M2": 9657.0, "NITELIK": "Tarla", "MAHALLE": "Raman Mahallesi" }, "geometry": { "type": "Polygon", "coordinates": [ [ [ 4581315.349692340940237, 4564313.974004191346467 ], [ 4581437.133215268142521, 4564313.974004191346467 ], [ 4581437.133215268142521, 4564441.21161868982017 ], [ 4581315.349692340940237, 4564441.21161868982017 ], [ 4581315.349692340940237, 4564313.974004191346467 ] ] ] } },
{ "type": "Feature", "properties": { "ADA_NO": "7", "PARSEL_NO": "3", "ID": 32, "ALAN_M2": 8077.0, "NITELIK": "Bahçe", "MAHALLE": "Sanayi Mahallesi" }, "geometry": { "type": "Polygon", "coordinates": [ [ [ 4581406.742994282394648, 4564313.974004191346467 ], [ 4581507.37581396009773, 4564313.974004191346467 ], [ 4581507.37581396009773, 4564442.763306537643075 ], [ 4581406.742994282394648, 4564442.763306537643075 ], [ 4581406.742994282394648, 4564313.974004191346467 ] ] ] } },
{ "type": "Feature", "properties": { "ADA_NO": "7", "PARSEL_NO": "4", "ID": 33, "ALAN_M2": 19285.1, "NITELIK": "Bahçe", "MAHALLE": "Cumhuriyet Mahallesi" }, "geometry": { "type": "Polygon", "coordinates": [ [ [ 4581863.152906534262002, 4564313.974004191346467 ], [ 4582062.526114545762539, 4564313.974004191346467 ], [ 4582062.526114545762539, 4564469.142035421915352 ], [ 4581863.152906534262002, 4564469.142035421915352 ], [ 4581863.152906534262002, 4564313.974004191346467 ] ] ] } },
{ "type": "Feature", "properties": { "ADA_NO": "8", "PARSEL_NO": "1", "ID": 34, "ALAN_M2": 15573.2, "NITELIK": "Arsa", "MAHALLE": "Merkez Mahallesi" }, "geometry": { "type": "Polygon", "coordinates": [ [ [ 4580072.690216615796089, 4564516.821405239403248 ], [ 4580218.296110573224723, 4564516.821405239403248 ], [ 4580218.296110573224723, 4564688.497162440791726 ], [ 4580072.690216615796089, 4564688.497162440791726 ], [ 4580072.690216615796089, 4564516.821405239403248 ] ] ] } },
{ "type": "Feature", "properties": { "ADA_NO": "8", "PARSEL_NO": "2", "ID": 35, "ALAN_M2": 10090.2, "NITELIK": "Konut", "MAHALLE": "Raman Mahallesi" }, "geometry": { "type": "Polygon", "coordinates": [ [ [ 4580202.266103899106383, 4564516.821405239403248 ], [ 4580314.921428581699729, 4564516.821405239403248 ], [ 4580314.921428581699729, 4564660.566155704669654 ], [ 4580202.266103899106383, 4564660.566155704669654 ], [ 4580202.266103899106383, 4564516.821405239403248 ] ] ] } },
{ "type": "Feature", "properties": { "ADA_NO": "8", "PARSEL_NO": "3", "ID": 36, "ALAN_M2": 23286.3, "NITELIK": "Tarla", "MAHALLE": "Cumhuriyet Mahallesi" }, "geometry": { "type": "Polygon", "coordinates": [ [ [ 4580546.243330449797213, 4564516.821405239403248 ], [ 4580752.184388417750597, 4564516.821405239403248 ], [ 4580752.184388417750597, 4564698.371778757311404 ], [ 4580546.243330449797213, 4564698.371778757311404 ], [ 4580546.243330449797213, 4564516.821405239403248 ] ] ] } },
{ "type": "Feature", "properties": { "ADA_NO": "8", "PARSEL_NO": "4", "ID": 37, "ALAN_M2": 15389.6, "NITELIK": "Arsa", "MAHALLE": "Cumhuriyet Mahallesi" }, "geometry": { "type": "Polygon", "coordinates": [ [ [ 4580776.674676392227411, 4564516.821405239403248 ], [ 4580980.723303015343845, 4564516.821405239403248 ], [ 4580980.723303015343845, 4564637.854634903371334 ], [ 4580776.674676392227411, 4564637.854634903371334 ], [ 4580776.674676392227411, 4564516.821405239403248 ] ] ] } },
{ "type": "Feature", "properties": { "ADA_NO": "9", "PARSEL_NO": "1", "ID": 38, "ALAN_M2": 13388.3, "NITELIK": "Konut", "MAHALLE": "Merkez Mahallesi" }, "geometry": { "type": "Polygon", "coordinates": [ [ [ 4579178.015469110570848, 4563296.552345596253872 ], [ 4579363.807699243538082, 4563296.552345596253872 ], [ 4579363.807699243538082, 4563412.211508475244045 ], [ 4579178.015469110570848, 4563412.211508475244045 ], [ 4579178.015469110570848, 4563296.552345596253872 ] ] ] } },
{ "type": "Feature", "properties": { "ADA_NO": "9", "PARSEL_NO": "2", "ID": 39, "ALAN_M2": 12439.7, "NITELIK": "Konut", "MAHALLE": "Merkez Mahallesi" }, "geometry": { "type": "Polygon", "coordinates": [ [ [ 4579396.535629537887871, 4563296.552345596253872 ], [ 4579586.446680830791593, 4563296.552345596253872 ], [ 4579586.446680830791593, 4563401.773921393789351 ], [ 4579396.535629537887871, 4563401.773921393789351 ], [ 4579396.535629537887871, 4563296.552345596253872 ] ] ] } },
{ "type": "Feature", "properties": { "ADA_NO": "9", "PARSEL_NO": "3", "ID": 40, "ALAN_M2": 11868.7, "NITELIK": "Ticari", "MAHALLE": "Raman Mahallesi" }, "geometry": { "type": "Polygon", "coordinates": [ [ [ 4579515.20220672339201, 4563296.552345596253872 ], [ 4579661.809976098127663, 4563296.552345596253872 ], [ 4579661.809976098127663, 4563426.598470024764538 ], [ 4579515.20220672339201, 4563426.598470024764538 ], [ 4579515.20220672339201, 4563296.552345596253872 ] ] ] } },
{ "type": "Feature", "properties": { "ADA_NO": "9", "PARSEL_NO": "4", "ID": 41, "ALAN_M2": 8133.0, "NITELIK": "Arsa", "MAHALLE": "Cumhuriyet Mahallesi" }, "geometry": { "type": "Polygon", "coordinates": [ [ [ 4579598.246546855196357, 4563296.552345596253872 ], [ 4579720.030069782398641, 4563296.552345596253872 ], [ 4579720.030069782398641, 4563403.748599224723876 ], [ 4579598.246546855196357, 4563403.748599224723876 ], [ 4579598.246546855196357, 4563296.552345596253872 ] ] ] } },
{ "type": "Feature", "properties": { "ADA_NO": "9", "PARSEL_NO": "5", "ID": 42, "ALAN_M2": 14190.8, "NITELIK": "Bahçe", "MAHALLE": "Sanayi Mahallesi" }, "geometry": { "type": "Polygon", "coordinates": [ [ [ 4580043.079232065007091, 4563296.552345596253872 ], [ 4580231.097852014936507, 4563296.552345596253872 ], [ 4580231.097852014936507, 4563417.712403184734285 ], [ 4580043.079232065007091, 4563417.712403184734285 ], [ 4580043.079232065007091, 4563296.552345596253872 ] ] ] } },
{ "type": "Feature", "properties": { "ADA_NO": "9", "PARSEL_NO": "6", "ID": 43, "ALAN_M2": 21581.1, "NITELIK": "Arsa", "MAHALLE": "Cumhuriyet Mahallesi" }, "geometry": { "type": "Polygon", "coordinates": [ [ [ 4580316.034623489715159, 4563296.552345596253872 ], [ 4580513.960678121075034, 4563296.552345596253872 ], [ 4580513.960678121075034, 4563471.593115652911365 ], [ 4580316.034623489715159, 4563471.593115652911365 ], [ 4580316.034623489715159, 4563296.552345596253872 ] ] ] } },
{ "type": "Feature", "properties": { "ADA_NO": "9", "PARSEL_NO": "7", "ID": 44, "ALAN_M2": 16143.5, "NITELIK": "Bahçe", "MAHALLE": "Raman Mahallesi" }, "geometry": { "type": "Polygon", "coordinates": [ [ [ 4580300.895172742195427, 4563296.552345596253872 ], [ 4580463.644268281757832, 4563296.552345596253872 ], [ 4580463.644268281757832, 4563455.79560031183064 ], [ 4580300.895172742195427, 4563455.79560031183064 ], [ 4580300.895172742195427, 4563296.552345596253872 ] ] ] } }
]
}
