{
"type": "FeatureCollection",
"name": "yapi",
"crs": { "type": "name", "properties": { "name": "urn:ogc:def:crs:EPSG::3857" } },
"features": [
{ "type": "Feature", "properties": { "YAPI_ID": 1, "KAT": 4, "YAPI_TURU": "Okul", "PARSEL_ID": 1 }, "geometry": { "type": "Polygon", "coordinates": [ [ [ 4578423.15800204128027, 4561148.346979912370443 ], [ 4578526.685128478333354, 4561148.346979912370443 ], [ 4578526.685128478333354, 4561230.137631387449801 ], [ 4578423.15800204128027, 4561230.137631387449801 ], [ 4578423.15800204128027, 4561148.346979912370443 ] ] ] } },
{ "type": "Feature", "properties": { "YAPI_ID": 2, "KAT": 8, "YAPI_TURU": "Sanayi", "PARSEL_ID": 2 }, "geometry": { "type": "Polygon", "coordinates": [ [ [ 4578631.659408296458423, 4561148.346979912370443 ], [ 4578790.734960639849305, 4561148.346979912370443 ], [ 4578790.734960639849305, 4561263.700188481248915 ], [ 4578631.659408296458423, 4561263.700188481248915 ], [ 4578631.659408296458423, 4561148.346979912370443 ] ] ] } },
{ "type": "Feature", "properties": { "YAPI_ID": 3, "KAT": 7, "YAPI_TURU": "İşyeri", "PARSEL_ID": 3 }, "geometry": { "type": "Polygon", "coordinates": [ [ [ 4578893.816809115931392, 4561148.346979912370443 ], [ 4579076.269454523921013, 4561148.346979912370443 ], [ 4579076.269454523921013, 4561260.174704698845744 ], [ 4578893.816809115931392, 4561260.174704698845744 ], [ 4578893.816809115931392, 4561148.346979912370443 ] ] ] } },
{ "type": "Feature", "properties": { "YAPI_ID": 4, "KAT": 8, "YAPI_TURU": "Sanayi", "PARSEL_ID": 4 }, "geometry": { "type": "Polygon", "coordinates": [ [ [ 4579073.2638282738626, 4561148.346979912370443 ], [ 4579239.352508536539972, 4561148.346979912370443 ], [ 4579239.352508536539972, 4561285.558214633725584 ], [ 4579073.2638282738626, 4561285.558214633725584 ], [ 4579073.2638282738626, 4561148.346979912370443 ] ] ] } },
{ "type": "Feature", "properties": { "YAPI_ID": 5, "KAT": 8, "YAPI_TURU": "İşyeri", "PARSEL_ID": 5 }, "geometry": { "type": "Polygon", "coordinates": [ [ [ 4577190.294641504995525, 4563486.262258556671441 ], [ 4577305.955592438578606, 4563486.262258556671441 ], [ 4577305.955592438578606, 4563637.045322678983212 ], [ 4577190.294641504995525, 4563637.045322678983212 ], [ 4577190.294641504995525, 4563486.262258556671441 ] ] ] } },
{ "type": "Feature", "properties": { "YAPI_ID": 6, "KAT": 2, "YAPI_TURU": "Sanayi", "PARSEL_ID": 6 }, "geometry": { "type": "Polygon", "coordinates": [ [ [ 4577365.622839505784214, 4563486.262258556671441 ], [ 4577495.755324241705239, 4563486.262258556671441 ], [ 4577495.755324241705239, 4563590.921552427113056 ], [ 4577365.622839505784214, 4563590.921552427113056 ], [ 4577365.622839505784214, 4563486.262258556671441 ] ] ] } },
{ "type": "Feature", "properties": { "YAPI_ID": 7, "KAT": 4, "YAPI_TURU": "Cami", "PARSEL_ID": 7 }, "geometry": { "type": "Polygon", "coordinates": [ [ [ 4577529.596449444070458, 4563486.262258556671441 ], [ 4577654.830876586027443, 4563486.262258556671441 ], [ 4577654.830876586027443, 4563587.536329651251435 ], [ 4577529.596449444070458, 4563587.536329651251435 ], [ 4577529.596449444070458, 4563486.262258556671441 ] ] ] } },
{ "type": "Feature", "properties": { "YAPI_ID": 8, "KAT": 1, "YAPI_TURU": "Konut", "PARSEL_ID": 8 }, "geometry": { "type": "Polygon", "coordinates": [ [ [ 4577713.384928743354976, 4563486.262258556671441 ], [ 4577842.738177045248449, 4563486.262258556671441 ], [ 4577842.738177045248449, 4563633.095878675580025 ], [ 4577713.384928743354976, 4563633.095878675580025 ], [ 4577713.384928743354976, 4563486.262258556671441 ] ] ] } },
{ "type": "Feature", "properties": { "YAPI_ID": 9, "KAT": 6, "YAPI_TURU": "Cami", "PARSEL_ID": 9 }, "geometry": { "type": "Polygon", "coordinates": [ [ [ 4578151.315805524587631, 4563486.262258556671441 ], [ 4578337.998591584153473, 4563486.262258556671441 ], [ 4578337.998591584153473, 4563587.113176882266998 ], [ 4578151.315805524587631, 4563587.113176882266998 ], [ 4578151.315805524587631, 4563486.262258556671441 ] ] ] } },
{ "type": "Feature", "properties": { "YAPI_ID": 10, "KAT": 2, "YAPI_TURU": "Okul", "PARSEL_ID": 10 }, "geometry": { "type": "Polygon", "coordinates": [ [ [ 4578244.824177790433168, 4563486.262258556671441 ], [ 4578406.0148004591465, 4563486.262258556671441 ], [ 4578406.0148004591465, 4563594.165725288912654 ], [ 4578244.824177790433168, 4563594.165725288912654 ], [ 4578244.824177790433168, 4563486.262258556671441 ] ] ] } },
{ "type": "Feature", "properties": { "YAPI_ID": 11, "KAT": 1, "YAPI_TURU": "Sanayi", "PARSEL_ID": 11 }, "geometry": { "type": "Polygon", "coordinates": [ [ [ 4577910.086468975059688, 4563486.262258556671441 ], [ 4577992.128933689557016, 4563486.262258556671441 ], [ 4577992.128933689557016, 4563558.761980609036982 ], [ 4577910.086468975059688, 4563558.761980609036982 ], [ 4577910.086468975059688, 4563486.262258556671441 ] ] ] } },
{ "type": "Feature", "properties": { "YAPI_ID": 12, "KAT": 5, "YAPI_TURU": "Konut", "PARSEL_ID": 12 }, "geometry": { "type": "Polygon", "coordinates": [ [ [ 4576841.975954812951386, 4562292.346433687023818 ], [ 4576935.818285551853478, 4562292.346433687023818 ], [ 4576935.818285551853478, 4562415.187198149971664 ], [ 4576841.975954812951386, 4562415.187198149971664 ], [ 4576841.975954812951386, 4562292.346433687023818 ] ] ] } },
{ "type": "Feature", "properties": { "YAPI_ID": 13, "KAT": 6, "YAPI_TURU": "Cami", "PARSEL_ID": 13 }, "geometry": { "type": "Polygon", "coordinates": [ [ [ 4576974.557468348182738, 4562292.346433687023818 ], [ 4577067.620562651194632, 4562292.346433687023818 ], [ 4577067.620562651194632, 4562397.13473298586905 ], [ 4576974.557468348182738, 4562397.13473298586905 ], [ 4576974.557468348182738, 4562292.346433687023818 ] ] ] } },
{ "type": "Feature", "properties": { "YAPI_ID": 14, "KAT": 5, "YAPI_TURU": "İşyeri", "PARSEL_ID": 14 }, "geometry": { "type": "Polygon", "coordinates": [ [ [ 4577185.84186187479645, 4562292.346433687023818 ], [ 4577313.080039850436151, 4562292.346433687023818 ], [ 4577313.080039850436151, 4562408.98165971133858 ], [ 4577185.84186187479645, 4562408.98165971133858 ], [ 4577185.84186187479645, 4562292.346433687023818 ] ] ] } },
{ "type": "Feature", "properties": { "YAPI_ID": 15, "KAT": 3, "YAPI_TURU": "Sanayi", "PARSEL_ID": 15 }, "geometry": { "type": "Polygon", "coordinates": [ [ [ 4581055.307361848652363, 4562549.876502696424723 ], [ 4581147.702539205551147, 4562549.876502696424723 ], [ 4581147.702539205551147, 4562693.594032126478851 ], [ 4581055.307361848652363, 4562693.594032126478851 ], [ 4581055.307361848652363, 4562549.876502696424723 ] ] ] } },
{ "type": "Feature", "properties": { "YAPI_ID": 16, "KAT": 1, "YAPI_TURU": "Cami", "PARSEL_ID": 16 }, "geometry": { "type": "Polygon", "coordinates": [ [ [ 4581248.33535888325423, 4562549.876502696424723 ], [ 4581393.941252840682864, 4562549.876502696424723 ], [ 4581393.941252840682864, 4562654.949476454406977 ], [ 4581248.33535888325423, 4562654.949476454406977 ], [ 4581248.33535888325423, 4562549.876502696424723 ] ] ] } },
{ "type": "Feature", "properties": { "YAPI_ID": 17, "KAT": 1, "YAPI_TURU": "Konut", "PARSEL_ID": 17 }, "geometry": { "type": "Polygon", "coordinates": [ [ [ 4581322.47413975186646, 4562549.876502696424723 ], [ 4581416.427789981476963, 4562549.876502696424723 ], [ 4581416.427789981476963, 4562635.20413854252547 ], [ 4581322.47413975186646, 4562635.20413854252547 ], [ 4581322.47413975186646, 4562549.876502696424723 ] ] ] } },
{ "type": "Feature", "properties": { "YAPI_ID": 18, "KAT": 6, "YAPI_TURU": "Sanayi", "PARSEL_ID": 18 }, "geometry": { "type": "Polygon", "coordinates": [ [ [ 4577157.232752740383148, 4561186.421858256682754 ], [ 4577270.667313857935369, 4561186.421858256682754 ], [ 4577270.667313857935369, 4561299.09611195512116 ], [ 4577157.232752740383148, 4561299.09611195512116 ], [ 4577157.232752740383148, 4561186.421858256682754 ] ] ] } },
{ "type": "Feature", "properties": { "YAPI_ID": 19, "KAT": 4, "YAPI_TURU": "Sanayi", "PARSEL_ID": 19 }, "geometry": { "type": "Polygon", "coordinates": [ [ [ 4577287.365237478166819, 4561186.421858256682754 ], [ 4577378.424580945633352, 4561186.421858256682754 ], [ 4577378.424580945633352, 4561326.453999972902238 ], [ 4577287.365237478166819, 4561326.453999972902238 ], [ 4577287.365237478166819, 4561186.421858256682754 ] ] ] } },
{ "type": "Feature", "properties": { "YAPI_ID": 20, "KAT": 5, "YAPI_TURU": "İşyeri", "PARSEL_ID": 20 }, "geometry": { "type": "Polygon", "coordinates": [ [ [ 4577515.904152075760067, 4561186.421858256682754 ], [ 4577649.710180009715259, 4561186.421858256682754 ], [ 4577649.710180009715259, 4561257.918395706452429 ], [ 4577515.904152075760067, 4561257.918395706452429 ], [ 4577515.904152075760067, 4561186.421858256682754 ] ] ] } },
{ "type": "Feature", "properties": { "YAPI_ID": 21, "KAT": 8, "YAPI_TURU": "Konut", "PARSEL_ID": 21 }, "geometry": { "type": "Polygon", "coordinates": [ [ [ 4577585.924111785367131, 4561186.421858256682754 ], [ 4577687.89276535063982, 4561186.421858256682754 ], [ 4577687.89276535063982, 4561290.634924062527716 ], [ 4577585.924111785367131, 4561290.634924062527716 ], [ 4577585.924111785367131, 4561186.421858256682754 ] ] ] } },
{ "type": "Feature", "properties": { "YAPI_ID": 22, "KAT": 7, "YAPI_TURU": "İşyeri", "PARSEL_ID": 22 }, "geometry": { "type": "Polygon", "coordinates": [ [ [ 4577830.047755094245076, 4561186.421858256682754 ], [ 4577954.05766783747822, 4561186.421858256682754 ], [ 4577954.05766783747822, 4561288.237588743679225 ], [ 4577830.047755094245076, 4561288.237588743679225 ], [ 4577830.047755094245076, 4561186.421858256682754 ] ] ] } },
{ "type": "Feature", "properties": { "YAPI_ID": 23, "KAT": 4, "YAPI_TURU": "Konut", "PARSEL_ID": 23 }, "geometry": { "type": "Polygon", "coordinates": [ [ [ 4578296.253782536834478, 4561186.421858256682754 ], [ 4578472.138577989302576, 4561186.421858256682754 ], [ 4578472.138577989302576, 4561335.05623738002032 ], [ 4578296.253782536834478, 4561335.05623738002032 ], [ 4578296.253782536834478, 4561186.421858256682754 ] ] ] } },
{ "type": "Feature", "properties": { "YAPI_ID": 24, "KAT": 8, "YAPI_TURU": "İşyeri", "PARSEL_ID": 24 }, "geometry": { "type": "Polygon", "coordinates": [ [ [ 4578025.302141945809126, 4561186.421858256682754 ], [ 4578128.82926838286221, 4561186.421858256682754 ], [ 4578128.82926838286221, 4561329.133384630084038 ], [ 4578025.302141945809126, 4561329.133384630084038 ], [ 4578025.302141945809126, 4561186.421858256682754 ] ] ] } },
{ "type": "Feature", "properties": { "YAPI_ID": 25, "KAT": 5, "YAPI_TURU": "Okul", "PARSEL_ID": 25 }, "geometry": { "type": "Polygon", "coordinates": [ [ [ 4576962.423643851652741, 4563625.055943736806512 ], [ 4577064.726255889981985, 4563625.055943736806512 ], [ 4577064.726255889981985, 4563763.99253707472235 ], [ 4576962.423643851652741, 4563763.99253707472235 ], [ 4576962.423643851652741, 4563625.055943736806512 ] ] ] } },
{ "type": "Feature", "properties": { "YAPI_ID": 26, "KAT": 6, "YAPI_TURU": "Konut", "PARSEL_ID": 26 }, "geometry": { "type": "Polygon", "coordinates": [ [ [ 4577115.599263183772564, 4563625.055943736806512 ], [ 4577226.473476013168693, 4563625.055943736806512 ], [ 4577226.473476013168693, 4563759.196725214831531 ], [ 4577115.599263183772564, 4563759.196725214831531 ], [ 4577115.599263183772564, 4563625.055943736806512 ] ] ] } },
{ "type": "Feature", "properties": { "YAPI_ID": 27, "KAT": 4, "YAPI_TURU": "Sanayi", "PARSEL_ID": 27 }, "geometry": { "type": "Polygon", "coordinates": [ [ [ 4577300.612256881780922, 4563625.055943736806512 ], [ 4577425.512725550681353, 4563625.055943736806512 ], [ 4577425.512725550681353, 4563772.314686437137425 ], [ 4577300.612256881780922, 4563772.314686437137425 ], [ 4577300.612256881780922, 4563625.055943736806512 ] ] ] } },
{ "type": "Feature", "properties": { "YAPI_ID": 28, "KAT": 3, "YAPI_TURU": "Okul", "PARSEL_ID": 28 }, "geometry": { "type": "Polygon", "coordinates": [ [ [ 4577656.500668947584927, 4563625.055943736806512 ], [ 4577835.391090651974082, 4563625.055943736806512 ], [ 4577835.391090651974082, 4563769.493618108332157 ], [ 4577656.500668947584927, 4563769.493618108332157 ], [ 4577656.500668947584927, 4563625.055943736806512 ] ] ] } },
{ "type": "Feature", "properties": { "YAPI_ID": 29, "KAT": 2, "YAPI_TURU": "Konut", "PARSEL_ID": 29 }, "geometry": { "type": "Polygon", "coordinates": [ [ [ 4577899.399797857739031, 4563625.055943736806512 ], [ 4578080.850567851215601, 4563625.055943736806512 ], [ 4578080.850567851215601, 4563717.30399226769805 ], [ 4577899.399797857739031, 4563717.30399226769805 ], [ 4577899.399797857739031, 4563625.055943736806512 ] ] ] } },
{ "type": "Feature", "properties": { "YAPI_ID": 30, "KAT": 3, "YAPI_TURU": "İşyeri", "PARSEL_ID": 30 }, "geometry": { "type": "Polygon", "coordinates": [ [ [ 4581186.330402512103319, 4564328.080093041993678 ], [ 4581295.646142470650375, 4564328.080093041993678 ], [ 4581295.646142470650375, 4564455.882131242193282 ], [ 4581186.330402512103319, 4564455.882131242193282 ], [ 4581186.330402512103319, 4564328.080093041993678 ] ] ] } },
{ "type": "Feature", "properties": { "YAPI_ID": 31, "KAT": 3, "YAPI_TURU": "Sanayi", "PARSEL_ID": 31 }, "geometry": { "type": "Polygon", "coordinates": [ [ [ 4581326.481641421094537, 4564328.080093041993678 ], [ 4581426.001266188919544, 4564328.080093041993678 ], [ 4581426.001266188919544, 4564427.105376163497567 ], [ 4581326.481641421094537, 4564427.105376163497567 ], [ 4581326.481641421094537, 4564328.080093041993678 ] ] ] } },
{ "type": "Feature", "properties": { "YAPI_ID": 32, "KAT": 2, "YAPI_TURU": "Konut", "PARSEL_ID": 32 }, "geometry": { "type": "Polygon", "coordinates": [ [ [ 4581417.874943361617625, 4564328.080093041993678 ], [ 4581496.24386487994343, 4564328.080093041993678 ], [ 4581496.24386487994343, 4564428.657061904668808 ], [ 4581417.874943361617625, 4564428.657061904668808 ], [ 4581417.874943361617625, 4564328.080093041993678 ] ] ] } },
{ "type": "Feature", "properties": { "YAPI_ID": 33, "KAT": 7, "YAPI_TURU": "İşyeri", "PARSEL_ID": 33 }, "geometry": { "type": "Polygon", "coordinates": [ [ [ 4581874.284855614416301, 4564328.080093041993678 ], [ 4582051.394165465608239, 4564328.080093041993678 ], [ 4582051.394165465608239, 4564455.035754955373704 ], [ 4581874.284855614416301, 4564455.035754955373704 ], [ 4581874.284855614416301, 4564328.080093041993678 ] ] ] } },
{ "type": "Feature", "properties": { "YAPI_ID": 34, "KAT": 6, "YAPI_TURU": "İşyeri", "PARSEL_ID": 34 }, "geometry": { "type": "Polygon", "coordinates": [ [ [ 4580083.822165695019066, 4564530.927769635803998 ], [ 4580207.164161494001746, 4564530.927769635803998 ], [ 4580207.164161494001746, 4564674.390583992004395 ], [ 4580083.822165695019066, 4564674.390583992004395 ], [ 4580083.822165695019066, 4564530.927769635803998 ] ] ] } },
{ "type": "Feature", "properties": { "YAPI_ID": 35, "KAT": 3, "YAPI_TURU": "Okul", "PARSEL_ID": 35 }, "geometry": { "type": "Polygon", "coordinates": [ [ [ 4580213.39805297832936, 4564530.927769635803998 ], [ 4580303.789479501545429, 4564530.927769635803998 ], [ 4580303.789479501545429, 4564646.459615199826658 ], [ 4580213.39805297832936, 4564646.459615199826658 ], [ 4580213.39805297832936, 4564530.927769635803998 ] ] ] } },
{ "type": "Feature", "properties": { "YAPI_ID": 36, "KAT": 1, "YAPI_TURU": "Okul", "PARSEL_ID": 36 }, "geometry": { "type": "Polygon", "coordinates": [ [ [ 4580557.375279529951513, 4564530.927769635803998 ], [ 4580741.05243933852762, 4564530.927769635803998 ], [ 4580741.05243933852762, 4564684.265186893753707 ], [ 4580557.375279529951513, 4564684.265186893753707 ], [ 4580557.375279529951513, 4564530.927769635803998 ] ] ] } },
{ "type": "Feature", "properties": { "YAPI_ID": 37, "KAT": 7, "YAPI_TURU": "İşyeri", "PARSEL_ID": 37 }, "geometry": { "type": "Polygon", "coordinates": [ [ [ 4580787.806625471450388, 4564530.927769635803998 ], [ 4580969.591353936120868, 4564530.927769635803998 ], [ 4580969.591353936120868, 4564623.748125251382589 ], [ 4580787.806625471450388, 4564623.748125251382589 ], [ 4580787.806625471450388, 4564530.927769635803998 ] ] ] } },
{ "type": "Feature", "properties": { "YAPI_ID": 38, "KAT": 5, "YAPI_TURU": "İşyeri", "PARSEL_ID": 38 }, "geometry": { "type": "Polygon", "coordinates": [ [ [ 4579189.147418189793825, 4563310.65705260168761 ], [ 4579352.675750164315104, 4563310.65705260168761 ], [ 4579352.675750164315104, 4563398.10666355676949 ], [ 4579189.147418189793825, 4563398.10666355676949 ], [ 4579189.147418189793825, 4563310.65705260168761 ] ] ] } },
{ "type": "Feature", "properties": { "YAPI_ID": 39, "KAT": 2, "YAPI_TURU": "İşyeri", "PARSEL_ID": 39 }, "geometry": { "type": "Polygon", "coordinates": [ [ [ 4579407.667578617110848, 4563310.65705260168761 ], [ 4579575.314731750637293, 4563310.65705260168761 ], [ 4579575.314731750637293, 4563387.669090650044382 ], [ 4579407.667578617110848, 4563387.669090650044382 ], [ 4579407.667578617110848, 4563310.65705260168761 ] ] ] } },
{ "type": "Feature", "properties": { "YAPI_ID": 40, "KAT": 8, "YAPI_TURU": "Sanayi", "PARSEL_ID": 40 }, "geometry": { "type": "Polygon", "coordinates": [ [ [ 4579526.334155802614987, 4563310.65705260168761 ], [ 4579650.678027018904686, 4563310.65705260168761 ], [ 4579650.678027018904686, 4563412.493605567142367 ], [ 4579526.334155802614987, 4563412.493605567142367 ], [ 4579526.334155802614987, 4563310.65705260168761 ] ] ] } },
{ "type": "Feature", "properties": { "YAPI_ID": 41, "KAT": 1, "YAPI_TURU": "İşyeri", "PARSEL_ID": 41 }, "geometry": { "type": "Polygon", "coordinates": [ [ [ 4579609.378495934419334, 4563310.65705260168761 ], [ 4579708.898120703175664, 4563310.65705260168761 ], [ 4579708.898120703175664, 4563389.643765799701214 ], [ 4579609.378495934419334, 4563389.643765799701214 ], [ 4579609.378495934419334, 4563310.65705260168761 ] ] ] } },
{ "type": "Feature", "properties": { "YAPI_ID": 42, "KAT": 7, "YAPI_TURU": "Konut", "PARSEL_ID": 42 }, "geometry": { "type": "Polygon", "coordinates": [ [ [ 4580054.211181144230068, 4563310.65705260168761 ], [ 4580219.965902934782207, 4563310.65705260168761 ], [ 4580219.965902934782207, 4563403.607550796121359 ], [ 4580054.211181144230068, 4563403.607550796121359 ], [ 4580054.211181144230068, 4563310.65705260168761 ] ] ] } },
{ "type": "Feature", "properties": { "YAPI_ID": 43, "KAT": 4, "YAPI_TURU": "Sanayi", "PARSEL_ID": 43 }, "geometry": { "type": "Polygon", "coordinates": [ [ [ 4580327.166572569869459, 4563310.65705260168761 ], [ 4580502.828729040920734, 4563310.65705260168761 ], [ 4580502.828729040920734, 4563457.488190091215074 ], [ 4580327.166572569869459, 4563457.488190091215074 ], [ 4580327.166572569869459, 4563310.65705260168761 ] ] ] } },
{ "type": "Feature", "properties": { "YAPI_ID": 44, "KAT": 8, "YAPI_TURU": "Sanayi", "PARSEL_ID": 44 }, "geometry": { "type": "Polygon", "coordinates": [ [ [ 4580312.027121822349727, 4563310.65705260168761 ], [ 4580452.512319201603532, 4563310.65705260168761 ], [ 4580452.512319201603532, 4563441.6906962050125 ], [ 4580312.027121822349727, 4563441.6906962050125 ], [ 4580312.027121822349727, 4563310.65705260168761 ] ] ] } }
]
}
