{
"type": "FeatureCollection",
"name": "parcels",
"crs": { "type": "name", "properties": { "name": "urn:ogc:def:crs:EPSG::3857" } },
"features": [
{ "type": "Feature", "properties": { "fid": 1, "adı": null }, "geometry": { "type": "Polygon", "coordinates": [ [ [ 4564558.415400927886367, 4600395.173499434255064 ], [ 4564558.167846376076341, 4600347.54920363612473 ], [ 4564594.629426913335919, 4600343.634490238502622 ], [ 4564594.793137066997588, 4600387.356507427059114 ], [ 4564558.415400927886367, 4600395.173499434255064 ] ] ] } },
{ "type": "Feature", "properties": { "fid": 2, "adı": null }, "geometry": { "type": "Polygon", "coordinates": [ [ [ 4564594.776334832422435, 4600386.576056807301939 ], [ 4564593.869020964019001, 4600344.431809701025486 ], [ 4564627.221742439083755, 4600340.584470199421048 ], [ 4564628.078776828013361, 4600380.387343845330179 ], [ 4564594.776334832422435, 4600386.576056807301939 ] ] ] } },
{ "type": "Feature", "properties": { "fid": 3, "adı": null }, "geometry": { "type": "Polygon", "coordinates": [ [ [ 4564628.095581543631852, 4600381.167793858796358 ], [ 4564626.461339297704399, 4600341.381791745312512 ], [ 4564662.162463844753802, 4600338.264163833111525 ], [ 4564664.439592832699418, 4600371.789670730940998 ], [ 4564628.095581543631852, 4600381.167793858796358 ] ] ] } }
]
}
