{
"type": "FeatureCollection",
"name": "poi",
"crs": { "type": "name", "properties": { "name": "urn:ogc:def:crs:EPSG::3857" } },
"features": [
{ "type": "Feature", "properties": { "AD": "Silvan Devlet Hastanesi", "kategori": "hastane" }, "geometry": { "type": "Point", "coordinates": [ 4560591.088836812414229, 4601370.317160062491894 ] } },
{ "type": "Feature", "properties": { "AD": "Silvan Sağlık Ocağı", "kategori": "hastane" }, "geometry": { "type": "Point", "coordinates": [ 4565846.190797796472907, 4598964.042484509758651 ] } },
{ "type": "Feature", "properties": { "AD": "Merkez Eczanesi", "kategori": "eczane" }, "geometry": { "type": "Point", "coordinates": [ 4564869.3702961076051, 4599478.938661211170256 ] } },
{ "type": "Feature", "properties": { "AD": "Güven Eczanesi", "kategori": "eczane" }, "geometry": { "type": "Point", "coordinates": [ 4564541.240852122195065, 4600448.474917906336486 ] } },
{ "type": "Feature", "properties": { "AD": "Ulu Cami", "kategori": "cami" }, "geometry": { "type": "Point", "coordinates": [ 4564661.205732118338346, 4599593.174403073266149 ] } },
{ "type": "Feature", "properties": { "AD": "Feridun Cami", "kategori": "cami" }, "geometry": { "type": "Point", "coordinates": [ 4565243.907703509554267, 4599785.75096838735044 ] } },
{ "type": "Feature", "properties": { "AD": "İmam Zehebi Camii", "kategori": "cami" }, "geometry": { "type": "Point", "coordinates": [ 4564832.501737301237881, 4598835.14380958955735 ] } },
{ "type": "Feature", "properties": { "AD": "Silvan Ortaokulu", "kategori": "okul" }, "geometry": { "type": "Point", "coordinates": [ 4565500.418682060204446, 4599347.611502770334482 ] } },
{ "type": "Feature", "properties": { "AD": "Ziya Gökalp Ortaokulu", "kategori": "okul" }, "geometry": { "type": "Point", "coordinates": [ 4565935.5897445268929, 4599026.776328345760703 ] } },
{ "type": "Feature", "properties": { "AD": "Silvan Anadolu Lisesi", "kategori": "okul" }, "geometry": { "type": "Point", "coordinates": [ 4565096.693133864551783, 4598434.644990636967123 ] } },
{ "type": "Feature", "properties": { "AD": "Kent Meydan Parkı", "kategori": "park" }, "geometry": { "type": "Point", "coordinates": [ 4564599.01499533932656, 4600330.259199717082083 ] } },
{ "type": "Feature", "properties": { "AD": "Silvan Belediye Parkı", "kategori": "park" }, "geometry": { "type": "Point", "coordinates": [ 4564802.45513516664505, 4600808.552697622217238 ] } },
{ "type": "Feature", "properties": { "AD": "Silvan Kebapçısı", "kategori": "restoran" }, "geometry": { "type": "Point", "coordinates": [ 4565598.358179457485676, 4599341.314070485532284 ] } },
{ "type": "Feature", "properties": { "AD": "Lezzet Lokantası", "kategori": "restoran" }, "geometry": { "type": "Point", "coordinates": [ 4564913.67312999535352, 4599544.861504953354597 ] } },
{ "type": "Feature", "properties": { "AD": "Ziraat Bankası", "kategori": "banka" }, "geometry": { "type": "Point", "coordinates": [ 4564849.662303156219423, 4599482.073379050940275 ] } },
{ "type": "Feature", "properties": { "AD": "Halkbank ATM", "kategori": "banka" }, "geometry": { "type": "Point", "coordinates": [ 4564900.254239957779646, 4599513.706759220920503 ] } },
{ "type": "Feature", "properties": { "AD": "Silvan Kalesi", "kategori": "turistik" }, "geometry": { "type": "Point", "coordinates": [ 4565148.330418129451573, 4599822.948559545911849 ] } },
{ "type": "Feature", "properties": { "AD": "Şeyh Seyit Gül Türbesi", "kategori": "turistik" }, "geometry": { "type": "Point", "coordinates": [ 4567292.838369588367641, 4597919.007691555656493 ] } },
{ "type": "Feature", "properties": { "AD": "Silvan Oteli", "kategori": "otel" }, "geometry": { "type": "Point", "coordinates": [ 4564458.292094992473722, 4599736.144323158077896 ] } },
{ "type": "Feature", "properties": { "AD": "Belediye Binası", "kategori": "belediye" }, "geometry": { "type": "Point", "coordinates": [ 4564795.0208600461483, 4600322.750244465656579 ] } }
]
}
